[{"OBJECT_NAME":"ONEWEB-0291","OBJECT_ID":"2021-075G","EPOCH":"2026-05-27T03:05:41.210016","MEAN_MOTION":13.17652345,"ECCENTRICITY":0.000185,"INCLINATION":87.9158,"RA_OF_ASC_NODE":10.0494,"ARG_OF_PERICENTER":96.8883,"MEAN_ANOMALY":263.2459,"EPHEMERIS_TYPE":0,"CLASSIFICATION_TYPE":"U","NORAD_CAT_ID":49081,"ELEMENT_SET_NO":999,"REV_AT_EPOCH":23083,"BSTAR":0.00015759000000000001,"MEAN_MOTION_DOT":7.4e-07,"MEAN_MOTION_DDOT":0.0},{"OBJECT_NAME":"ONEWEB-0293","OBJECT_ID":"2021-075H","EPOCH":"2026-05-27T03:42:08.601408","MEAN_MOTION":13.17650747,"ECCENTRICITY":0.0001688,"INCLINATION":87.9152,"RA_OF_ASC_NODE":10.0487,"ARG_OF_PERICENTER":88.0184,"MEAN_ANOMALY":272.1141,"EPHEMERIS_TYPE":0,"CLASSIFICATION_TYPE":"U","NORAD_CAT_ID":49082,"ELEMENT_SET_NO":999,"REV_AT_EPOCH":23086,"BSTAR":4.078000000000001e-06,"MEAN_MOTION_DOT":1.4e-07,"MEAN_MOTION_DDOT":0.0},{"OBJECT_NAME":"ONEWEB-0294","OBJECT_ID":"2021-075J","EPOCH":"2026-05-27T01:26:51.255744","MEAN_MOTION":13.12442156,"ECCENTRICITY":0.0001484,"INCLINATION":87.8958,"RA_OF_ASC_NODE":354.8605,"ARG_OF_PERICENTER":92.5641,"MEAN_ANOMALY":267.5657,"EPHEMERIS_TYPE":0,"CLASSIFICATION_TYPE":"U","NORAD_CAT_ID":49083,"ELEMENT_SET_NO":999,"REV_AT_EPOCH":23180,"BSTAR":-0.00081842,"MEAN_MOTION_DOT":-2.82e-06,"MEAN_MOTION_DDOT":0.0},{"OBJECT_NAME":"ONEWEB-0295","OBJECT_ID":"2021-075K","EPOCH":"2026-05-27T03:40:56.441856","MEAN_MOTION":13.17652092,"ECCENTRICITY":0.0001992,"INCLINATION":87.9151,"RA_OF_ASC_NODE":10.053,"ARG_OF_PERICENTER":93.9056,"MEAN_ANOMALY":266.2304,"EPHEMERIS_TYPE":0,"CLASSIFICATION_TYPE":"U","NORAD_CAT_ID":49084,"ELEMENT_SET_NO":999,"REV_AT_EPOCH":23082,"BSTAR":-2.8144000000000004e-05,"MEAN_MOTION_DOT":2e-08,"MEAN_MOTION_DDOT":0.0},{"OBJECT_NAME":"ONEWEB-0296","OBJECT_ID":"2021-075L","EPOCH":"2026-05-27T02:47:21.446016","MEAN_MOTION":13.12440976,"ECCENTRICITY":0.0001875,"INCLINATION":87.8961,"RA_OF_ASC_NODE":354.856,"ARG_OF_PERICENTER":96.8967,"MEAN_ANOMALY":263.2375,"EPHEMERIS_TYPE":0,"CLASSIFICATION_TYPE":"U","NORAD_CAT_ID":49085,"ELEMENT_SET_NO":999,"REV_AT_EPOCH":23181,"BSTAR":0.00078556,"MEAN_MOTION_DOT":2.95e-06,"MEAN_MOTION_DDOT":0.0},{"OBJECT_NAME":"ONEWEB-0297","OBJECT_ID":"2021-075M","EPOCH":"2026-05-27T01:41:29.154912","MEAN_MOTION":13.12442707,"ECCENTRICITY":0.0001873,"INCLINATION":87.8947,"RA_OF_ASC_NODE":354.8788,"ARG_OF_PERICENTER":89.2517,"MEAN_ANOMALY":270.8826,"EPHEMERIS_TYPE":0,"CLASSIFICATION_TYPE":"U","NORAD_CAT_ID":49086,"ELEMENT_SET_NO":999,"REV_AT_EPOCH":23241,"BSTAR":-0.00086704,"MEAN_MOTION_DOT":-2.99e-06,"MEAN_MOTION_DDOT":0.0},{"OBJECT_NAME":"ONEWEB-0298","OBJECT_ID":"2021-075N","EPOCH":"2026-05-27T03:47:13.542432","MEAN_MOTION":13.17647787,"ECCENTRICITY":0.0001955,"INCLINATION":87.9151,"RA_OF_ASC_NODE":10.0499,"ARG_OF_PERICENTER":83.6835,"MEAN_ANOMALY":276.4519,"EPHEMERIS_TYPE":0,"CLASSIFICATION_TYPE":"U","NORAD_CAT_ID":49087,"ELEMENT_SET_NO":999,"REV_AT_EPOCH":23085,"BSTAR":0.00015866,"MEAN_MOTION_DOT":7.4e-07,"MEAN_MOTION_DDOT":0.0},{"OBJECT_NAME":"ONEWEB-0299","OBJECT_ID":"2021-075P","EPOCH":"2026-05-27T03:49:27.274080","MEAN_MOTION":13.17650101,"ECCENTRICITY":0.0001934,"INCLINATION":87.9161,"RA_OF_ASC_NODE":10.0279,"ARG_OF_PERICENTER":87.6771,"MEAN_ANOMALY":272.4582,"EPHEMERIS_TYPE":0,"CLASSIFICATION_TYPE":"U","NORAD_CAT_ID":49088,"ELEMENT_SET_NO":999,"REV_AT_EPOCH":23083,"BSTAR":0.00019537,"MEAN_MOTION_DOT":8.9e-07,"MEAN_MOTION_DDOT":0.0},{"OBJECT_NAME":"ONEWEB-0300","OBJECT_ID":"2021-075Q","EPOCH":"2026-05-27T03:20:17.805408","MEAN_MOTION":13.12442816,"ECCENTRICITY":0.0002108,"INCLINATION":87.8959,"RA_OF_ASC_NODE":354.8421,"ARG_OF_PERICENTER":80.4431,"MEAN_ANOMALY":279.6935,"EPHEMERIS_TYPE":0,"CLASSIFICATION_TYPE":"U","NORAD_CAT_ID":49089,"ELEMENT_SET_NO":999,"REV_AT_EPOCH":23244,"BSTAR":-0.0010421,"MEAN_MOTION_DOT":-3.62e-06,"MEAN_MOTION_DDOT":0.0},{"OBJECT_NAME":"ONEWEB-0301","OBJECT_ID":"2021-075R","EPOCH":"2026-05-27T02:57:07.853184","MEAN_MOTION":13.124423,"ECCENTRICITY":0.000199,"INCLINATION":87.8956,"RA_OF_ASC_NODE":354.8441,"ARG_OF_PERICENTER":77.8094,"MEAN_ANOMALY":282.3257,"EPHEMERIS_TYPE":0,"CLASSIFICATION_TYPE":"U","NORAD_CAT_ID":49090,"ELEMENT_SET_NO":999,"REV_AT_EPOCH":23180,"BSTAR":7.475500000000001e-05,"MEAN_MOTION_DOT":4e-07,"MEAN_MOTION_DDOT":0.0},{"OBJECT_NAME":"ONEWEB-0302","OBJECT_ID":"2021-075S","EPOCH":"2026-05-27T02:37:36.373728","MEAN_MOTION":13.12441389,"ECCENTRICITY":0.0001603,"INCLINATION":87.8959,"RA_OF_ASC_NODE":354.8581,"ARG_OF_PERICENTER":95.2649,"MEAN_ANOMALY":264.8663,"EPHEMERIS_TYPE":0,"CLASSIFICATION_TYPE":"U","NORAD_CAT_ID":49091,"ELEMENT_SET_NO":999,"REV_AT_EPOCH":23178,"BSTAR":0.0012691,"MEAN_MOTION_DOT":4.69e-06,"MEAN_MOTION_DDOT":0.0},{"OBJECT_NAME":"ONEWEB-0304","OBJECT_ID":"2021-075T","EPOCH":"2026-05-27T03:12:58.762944","MEAN_MOTION":13.17651509,"ECCENTRICITY":0.0001878,"INCLINATION":87.915,"RA_OF_ASC_NODE":10.0573,"ARG_OF_PERICENTER":89.2351,"MEAN_ANOMALY":270.8996,"EPHEMERIS_TYPE":0,"CLASSIFICATION_TYPE":"U","NORAD_CAT_ID":49092,"ELEMENT_SET_NO":999,"REV_AT_EPOCH":23080,"BSTAR":0.000218,"MEAN_MOTION_DOT":9.8e-07,"MEAN_MOTION_DDOT":0.0},{"OBJECT_NAME":"ONEWEB-0305","OBJECT_ID":"2021-075U","EPOCH":"2026-05-27T03:03:15.471360","MEAN_MOTION":13.17650741,"ECCENTRICITY":0.0002149,"INCLINATION":87.916,"RA_OF_ASC_NODE":10.0415,"ARG_OF_PERICENTER":93.2812,"MEAN_ANOMALY":266.8566,"EPHEMERIS_TYPE":0,"CLASSIFICATION_TYPE":"U","NORAD_CAT_ID":49093,"ELEMENT_SET_NO":999,"REV_AT_EPOCH":23083,"BSTAR":0.00037365,"MEAN_MOTION_DOT":1.58e-06,"MEAN_MOTION_DDOT":0.0},{"OBJECT_NAME":"ONEWEB-0308","OBJECT_ID":"2021-075V","EPOCH":"2026-05-27T02:27:50.849568","MEAN_MOTION":13.12442255,"ECCENTRICITY":0.0001771,"INCLINATION":87.8959,"RA_OF_ASC_NODE":354.8516,"ARG_OF_PERICENTER":85.5245,"MEAN_ANOMALY":274.6085,"EPHEMERIS_TYPE":0,"CLASSIFICATION_TYPE":"U","NORAD_CAT_ID":49094,"ELEMENT_SET_NO":999,"REV_AT_EPOCH":23179,"BSTAR":0.001377,"MEAN_MOTION_DOT":5.08e-06,"MEAN_MOTION_DDOT":0.0},{"OBJECT_NAME":"ONEWEB-0309","OBJECT_ID":"2021-075W","EPOCH":"2026-05-27T03:08:08.757024","MEAN_MOTION":13.17650251,"ECCENTRICITY":0.0001448,"INCLINATION":87.9149,"RA_OF_ASC_NODE":10.0509,"ARG_OF_PERICENTER":98.3864,"MEAN_ANOMALY":261.7432,"EPHEMERIS_TYPE":0,"CLASSIFICATION_TYPE":"U","NORAD_CAT_ID":49095,"ELEMENT_SET_NO":999,"REV_AT_EPOCH":23080,"BSTAR":0.00032540000000000005,"MEAN_MOTION_DOT":1.39e-06,"MEAN_MOTION_DDOT":0.0},{"OBJECT_NAME":"ONEWEB-0310","OBJECT_ID":"2021-075X","EPOCH":"2026-05-27T02:49:48.186048","MEAN_MOTION":13.12441332,"ECCENTRICITY":0.0001753,"INCLINATION":87.8949,"RA_OF_ASC_NODE":354.8721,"ARG_OF_PERICENTER":86.4153,"MEAN_ANOMALY":273.7176,"EPHEMERIS_TYPE":0,"CLASSIFICATION_TYPE":"U","NORAD_CAT_ID":49096,"ELEMENT_SET_NO":999,"REV_AT_EPOCH":23242,"BSTAR":0.00073605,"MEAN_MOTION_DOT":2.78e-06,"MEAN_MOTION_DDOT":0.0}]