ONEWEB-0291             
1 49081U 21075G   26147.12894919  .00000074  00000+0  15759-3 0  9990
2 49081  87.9158  10.0494 0001850  96.8883 263.2459 13.17652345230830
ONEWEB-0293             
1 49082U 21075H   26147.15426622  .00000014  00000+0  40780-5 0  9994
2 49082  87.9152  10.0487 0001688  88.0184 272.1141 13.17650747230867
ONEWEB-0294             
1 49083U 21075J   26147.06031546 -.00000282  00000+0 -81842-3 0  9993
2 49083  87.8958 354.8605 0001484  92.5641 267.5657 13.12442156231807
ONEWEB-0295             
1 49084U 21075K   26147.15343104  .00000002  00000+0 -28144-4 0  9996
2 49084  87.9151  10.0530 0001992  93.9056 266.2304 13.17652092230824
ONEWEB-0296             
1 49085U 21075L   26147.11622044  .00000295  00000+0  78556-3 0  9990
2 49085  87.8961 354.8560 0001875  96.8967 263.2375 13.12440976231814
ONEWEB-0297             
1 49086U 21075M   26147.07047633 -.00000299  00000+0 -86704-3 0  9991
2 49086  87.8947 354.8788 0001873  89.2517 270.8826 13.12442707232412
ONEWEB-0298             
1 49087U 21075N   26147.15779563  .00000074  00000+0  15866-3 0  9995
2 49087  87.9151  10.0499 0001955  83.6835 276.4519 13.17647787230850
ONEWEB-0299             
1 49088U 21075P   26147.15934345  .00000089  00000+0  19537-3 0  9992
2 49088  87.9161  10.0279 0001934  87.6771 272.4582 13.17650101230836
ONEWEB-0300             
1 49089U 21075Q   26147.13909497 -.00000362  00000+0 -10421-2 0  9999
2 49089  87.8959 354.8421 0002108  80.4431 279.6935 13.12442816232444
ONEWEB-0301             
1 49090U 21075R   26147.12300756  .00000040  00000+0  74755-4 0  9996
2 49090  87.8956 354.8441 0001990  77.8094 282.3257 13.12442300231803
ONEWEB-0302             
1 49091U 21075S   26147.10944877  .00000469  00000+0  12691-2 0  9997
2 49091  87.8959 354.8581 0001603  95.2649 264.8663 13.12441389231782
ONEWEB-0304             
1 49092U 21075T   26147.13401346  .00000098  00000+0  21800-3 0  9991
2 49092  87.9150  10.0573 0001878  89.2351 270.8996 13.17651509230806
ONEWEB-0305             
1 49093U 21075U   26147.12726240  .00000158  00000+0  37365-3 0  9994
2 49093  87.9160  10.0415 0002149  93.2812 266.8566 13.17650741230830
ONEWEB-0308             
1 49094U 21075V   26147.10267187  .00000508  00000+0  13770-2 0  9995
2 49094  87.8959 354.8516 0001771  85.5245 274.6085 13.12442255231794
ONEWEB-0309             
1 49095U 21075W   26147.13065691  .00000139  00000+0  32540-3 0  9992
2 49095  87.9149  10.0509 0001448  98.3864 261.7432 13.17650251230806
ONEWEB-0310             
1 49096U 21075X   26147.11791882  .00000278  00000+0  73605-3 0  9990
2 49096  87.8949 354.8721 0001753  86.4153 273.7176 13.12441332232428
